OSCAR 7 (AO-7)          
1 07530U 74089B   26201.96965502 -.00000049  00000+0 -17641-4 0  9993
2 07530 101.9907 215.5685 0012624  67.7036 319.5939 12.53698634364751
PHASE 3B (AO-10)        
1 14129U 83058B   26201.38696919 -.00000023  00000+0  00000+0 0  9997
2 14129  25.9413 214.0974 5999765 124.7892 306.9505  2.05870004296172
UOSAT 2 (UO-11)         
1 14781U 84021B   26201.84770073  .00000920  00000+0  99049-4 0  9998
2 14781  97.8081 167.0525 0009171  75.7217 284.5019 14.90857629262144
LUSAT (LO-19)           
1 20442U 90005G   26201.88014390  .00000045  00000+0  32817-4 0  9993
2 20442  98.8846 224.6130 0012655 106.1213 254.1365 14.34131756907229
EYESAT A (AO-27)        
1 22825U 93061C   26201.91282639  .00000039  00000+0  31734-4 0  9992
2 22825  98.6863 269.3111 0008423   9.6352 350.4991 14.30950079711824
ITAMSAT (IO-26)         
1 22826U 93061D   26201.74236589  .00000021  00000+0  24924-4 0  9991
2 22826  98.6811 269.0617 0008619 352.8903   7.2156 14.31377685712118
RADIO ROSTO (RS15)      
1 23439U 94085A   26201.81783308 -.00000047  00000+0 -13223-3 0  9992
2 23439  64.8143 248.8272 0157137 357.6705   2.3471 11.27583651299690
JAS-2 (FO-29)           
1 24278U 96046B   26201.43295381 -.00000049  00000+0 -13729-4 0  9994
2 24278  98.5217  45.7476 0350108  10.3648 350.4474 13.53275815477666
TECHSAT 1B (GO-32)      
1 25397U 98043D   26201.92144205  .00000025  00000+0  31066-4 0  9994
2 25397  99.0090 195.5342 0002306 105.8843 254.2589 14.24434052456137
ISS (ZARYA)             
1 25544U 98067A   26201.79846070  .00005574  00000+0  10900-3 0  9995
2 25544  51.6312 133.7599 0006835 319.3995  40.6483 15.49066413576965
PCSAT (NO-44)           
1 26931U 01043C   26201.33574834  .00000044  00000+0  47440-4 0  9997
2 26931  67.0500 158.5337 0005868 267.0045  93.0386 14.31966213295195
SAUDISAT 1C (SO-50)     
1 27607U 02058C   26201.93815510  .00000570  00000+0  84993-4 0  9998
2 27607  64.5521  24.5545 0074346 256.2283 103.0541 14.83105633269469
CUTE-1 (CO-55)          
1 27844U 03031E   26201.82623460  .00000172  00000+0  93434-4 0  9990
2 27844  98.6745 209.9631 0010867  88.2698 271.9726 14.24353809196468
CUBESAT XI-IV (CO-57)   
1 27848U 03031J   26201.48019381  .00000116  00000+0  70115-4 0  9996
2 27848  98.6776 209.3071 0010684 105.6000 254.6359 14.23636281196115
MOZHAETS 4 (RS22)       
1 27939U 03042A   26201.98015619  .00000829  00000+0  13574-3 0  9990
2 27939  98.3483  27.2959 0011679 155.2099   4.3294 14.73520922220524
CUBESAT XI-V            
1 28895U 05043F   26201.69535046  .00000717  00000+0  12047-3 0  9994
2 28895  98.3023 358.0290 0015358  99.2356 261.0589 14.72710537106681
CUTE-1.7+APD II (CO-65) 
1 32785U 08021C   26201.92100785  .00002914  00000+0  18484-3 0  9992
2 32785  97.8299 184.0527 0006863 275.3891  84.6554 15.09730364990284
SEEDS II (CO-66)        
1 32791U 08021J   26201.94032663  .00013404  00000+0  41244-3 0  9996
2 32791  97.7537 201.4796 0003696 144.6807 215.4681 15.33789824992462
YUBILEINY (RS30)        
1 32953U 08025A   26201.89925807  .00000106  00000+0  69253-3 0  9990
2 32953  82.5071 334.4691 0018770 235.8235 124.1066 12.43181117823886
KKS-1 (KISEKI)          
1 33499U 09002H   26201.92133146  .00000769  00000+0  10093-3 0  9996
2 33499  98.1170 124.8978 0007888 170.2371 189.8997 14.83197814941198
SWISSCUBE               
1 35932U 09051B   26201.96616659  .00000595  00000+0  12696-3 0  9991
2 35932  98.4001 110.4390 0008052 103.7314 256.4784 14.62537581894096
BEESAT-1                
1 35933U 09051C   26201.71948310  .00000407  00000+0  91451-4 0  9996
2 35933  98.3928 109.7530 0006394 115.5252 244.6610 14.61766931894088
ITUPSAT1                
1 35935U 09051E   26201.53425089  .00000377  00000+0  87689-4 0  9995
2 35935  98.4013 108.7212 0008387 128.2729 231.9226 14.60483294893602
XIWANG-1 (HOPE-1)       
1 36122U 09072B   26201.98748675  .00000360  00000+0  10587-2 0  9998
2 36122 100.4044 155.2826 0007701 151.6384 208.5150 13.16441784797453
O/OREOS (USA 219)       
1 37224U 10062C   26201.88036302  .00001247  00000+0  12317-3 0  9998
2 37224  71.9703   4.0077 0014379 354.1341   5.9659 14.93865000121677
JUGNU                   
1 37839U 11058B   26201.41702666  .00000361  00000+0  49014-4 0  9999
2 37839  19.9604 106.5369 0018639  83.7644  74.4048 14.13784435763733
SRMSAT                  
1 37841U 11058D   26201.36756309  .00000330  00000+0  35428-4 0  9999
2 37841  19.9702 218.6370 0011604 208.2906 179.8338 14.11581727762516
STRAND-1                
1 39090U 13009E   26201.47425459  .00000134  00000+0  59206-4 0  9998
2 39090  98.3940  20.8921 0009644 126.9146 233.2926 14.37180722701842
ZACUBE-1 (TSHEPISOSAT)  
1 39417U 13066B   26201.86646474  .00001847  00000+0  14537-3 0  9998
2 39417  97.7999 164.3670 0044079 137.0238 223.4444 15.01347026685787
GOMX-1                  
1 39430U 13066Q   26201.95875226  .00000624  00000+0  10069-3 0  9990
2 39430  97.6466  40.2903 0127763 329.6541  29.7311 14.69550100674879
